PROBA-1                 
1 26958U 01049B   22321.40876317  .00000791  00000+0  71022-4 0  9992
2 26958  97.8442 281.4495 0070277 192.7904 167.1538 14.96878486147356
BIRD 2                  
1 26959U 01049C   22321.04097636  .00017771  00000+0  32784-3 0  9999
2 26959  97.7630  63.5933 0006276 174.2596 185.8727 15.49167507170527
CUTE-1 (CO-55)          
1 27844U 03031E   22321.06209906  .00000257  00000+0  13442-3 0  9994
2 27844  98.6803 326.4639 0010265  26.1092 334.0602 14.22540700  5602
CUBESAT XI-IV (CO-57)   
1 27848U 03031J   22320.58062430  .00000228  00000+0  12283-3 0  9993
2 27848  98.6844 326.4742 0010435  41.1177 319.0785 14.22085152  5336
GENESIS 1               
1 29252U 06029A   22321.36748456  .00005120  00000+0  22336-3 0  9996
2 29252  64.5212 288.4705 0050405 239.5038 120.1105 15.22223111902304
FALCONSAT-3             
1 30776U 07006E   22321.13754737  .00103530  00000+0  73784-3 0  9996
2 30776  35.4276 329.9532 0006242 176.7511 183.3268 15.72498050873445
GENESIS 2               
1 31789U 07028A   22321.29029369  .00005382  00000+0  23997-3 0  9995
2 31789  64.4966 332.3043 0058412 291.6548  67.8361 15.21018417849190
APRIZESAT 4             
1 35684U 09041D   22320.78735133  .00000526  00000+0  76417-4 0  9997
2 35684  98.3050 339.6291 0045760 221.8391 137.9319 14.79834963717590
APRIZESAT 3             
1 35686U 09041F   22321.20871767  .00000928  00000+0  10224-3 0  9990
2 35686  98.1034  51.2599 0072612  47.8125 312.9225 14.88248455721374
PROBA-2                 
1 36037U 09059B   22320.79478653  .00000204  00000+0  59769-4 0  9995
2 36037  98.2221 144.5468 0013470   4.5915 355.5403 14.53330226691387
APRIZESAT 5             
1 37792U 11044E   22321.25386314  .00000673  00000+0  10360-3 0  9998
2 37792  98.3007 200.9937 0056345 236.5557 123.0257 14.75960247605672
APRIZESAT 6             
1 37793U 11044F   22320.62584962  .00000557  00000+0  94239-4 0  9997
2 37793  98.3797 177.7215 0045368 294.1284 133.7565 14.72945982604269
TET-1                   
1 38710U 12039D   22321.41411420  .04583224  25541-5  62936-3 0  9990
2 38710  97.4745  56.3917 0007107 279.5603  80.4890 16.35210041581618
PROBA-V                 
1 39159U 13021A   22321.08310926  .00000035  00000+0  33572-4 0  9994
2 39159  98.3422 349.1724 0004420  20.6437 339.4920 14.23059981495032
STPSAT-3                
1 39380U 13064A   22320.53739856  .00047183  00000+0  65281-3 0  9999
2 39380  40.4961 196.3276 0011304 307.3231  52.6560 15.56190595502884
APRIZESAT 7             
1 39416U 13066A   22320.67781132  .00000846  00000+0  10457-3 0  9990
2 39416  97.5920 293.3636 0039506 214.7046 145.1591 14.84747302486628
APRIZESAT 8             
1 39425U 13066K   22320.80081458  .00000835  00000+0  10993-3 0  9992
2 39425  97.6485 285.2030 0049645 261.5030  98.0555 14.81872238485529
BUGSAT-1 (TITA)         
1 40014U 14033E   22320.93486155  .00001729  00000+0  15311-3 0  9992
2 40014  98.1467 325.6686 0028976 252.7430 107.0619 14.97406302458958
SAUDISAT 4              
1 40016U 14033G   22320.80327100  .00000438  00000+0  69952-4 0  9991
2 40016  97.6357 147.2707 0048213   8.8569 351.3481 14.75707355452866
APRIZESAT 9             
1 40018U 14033J   22321.45528355  .00000465  00000+0  81464-4 0  9992
2 40018  97.7287 123.9754 0072266  82.4882 278.4528 14.70430828451262
APRIZESAT 10            
1 40019U 14033K   22321.37728372  .00000570  00000+0  10355-3 0  9992
2 40019  97.7872 113.9005 0084808 127.8497 233.0421 14.67461837450406
TDS 1                   
1 40076U 14037H   22321.09988566  .00002332  00000+0  27138-3 0  9996
2 40076  98.3668 202.0611 0005787 307.2593  52.8092 14.86343687452453
TIANTUO 2               
1 40144U 14053B   22321.46751243  .00007057  00000+0  17973-3 0  9996
2 40144  97.1825  38.4368 0010705  15.0879 104.2237 15.39810229458626
TECHNOSAT               
1 42829U 17042E   22321.12416210  .00001787  00000+0  17990-3 0  9997
2 42829  97.4017 166.2514 0012906 211.4151 148.6299 14.92290889290858
FLYING LAPTOP           
1 42831U 17042G   22321.51502069  .00001113  00000+0  11441-3 0  9999
2 42831  97.4029 166.9593 0012892 210.6239 149.4258 14.92121341290917
HAWK-A                  
1 43765U 18099H   22320.77739833  .00000900  00000+0  81625-4 0  9992
2 43765  97.6017  24.8420 0015576 118.5564 241.7228 14.97639736215932
HAWK-B                  
1 43794U 18099AN  22321.17864736  .00001784  00000+0  15707-3 0  9998
2 43794  97.6015  25.2324 0015631 117.6941 242.5869 14.97646817215984
HAWK-C                  
1 43799U 18099AT  22320.77758205  .00001769  00000+0  15574-3 0  9996
2 43799  97.6014  24.7479 0015508 118.6490 241.6294 14.97646806216673
SALSAT                  
1 46495U 20068K   22320.83400124  .00002418  00000+0  17292-3 0  9993
2 46495  97.7457 262.3520 0018038 117.5205 242.7857 15.05310740117101
